GLOBALSTAR M023         
1 25621U 99004A   25170.43919660 -.00000103  00000+0  51892-5 0  9995
2 25621  52.0122  46.5835 0010072 126.3465  45.4161 12.62508291216015
GLOBALSTAR M040         
1 25622U 99004B   25170.41532890 -.00000094  00000+0  51907-4 0  9995
2 25622  51.9931  50.8148 0001586  51.5115 119.5203 12.62011391215534
GLOBALSTAR M038         
1 25624U 99004D   25170.68464697 -.00000090  00000+0  40413-4 0  9991
2 25624  51.9988  64.3791 0002599  57.4293 336.2338 12.32528386202682
GLOBALSTAR M022         
1 25649U 99012A   25170.55648882 -.00000075  00000+0  14139-3 0  9991
2 25649  52.0050 284.4615 0003040 170.5211 201.5160 12.02500593176662
GLOBALSTAR M041         
1 25650U 99012B   25171.22515232 -.00000050  00000+0  45339-3 0  9999
2 25650  51.9985 164.1890 0001721 321.9010  38.1704 11.96681142178887
GLOBALSTAR M046         
1 25651U 99012C   25171.14533047  .00000040  00000+0  14230-2 0  9998
2 25651  52.0038 232.8873 0002122 249.9712 131.9776 12.09410244184377
